ASTRA 1G                
1 25071U 97076A   22323.55001692  .00000136  00000+0  00000+0 0  9992
2 25071   6.5972  67.0716 0003640 174.9264  34.0148  1.00274922 91444
INMARSAT 3-F5           
1 25153U 98006B   22323.24842618 -.00000269  00000+0  00000+0 0  9992
2 25153   6.7427  64.6930 0004996 180.1009 208.9033  1.00269467 90806
UFO 8 (USA 138)         
1 25258U 98016A   22323.44053772  .00000111  00000+0  00000+0 0  9991
2 25258   9.5946  29.2552 0001871 212.8258 165.1076  1.00327140 90763
ASTRA 2A                
1 25462U 98050A   22324.05969053  .00000091  00000+0  00000+0 0  9999
2 25462   3.7899  83.8666 0003111 154.4382 259.4682  1.00272246 88654
SKYNET 4E               
1 25639U 99009B   22323.90458303 -.00000017  00000+0  00000+0 0  9993
2 25639  11.3256  16.0925 0003012 221.5271 145.7561  1.00275058 86937
ABS-7                   
1 25894U 99046A   22323.78938593 -.00000105  00000+0  00000+0 0  9995
2 25894   3.1503  85.9489 0002284  96.6035 246.9211  0.99953603 84023
ABS-6                   
1 25924U 99053A   22323.93657258 -.00000099  00000+0  00000+0 0  9992
2 25924   0.0178 109.5979 0002621 134.1882 311.3259  1.00270614 84757
AMC-4 (GE-4)            
1 25954U 99060A   22324.02142513  .00000109  00000+0  00000+0 0  9998
2 25954   1.9093  90.0086 0002704 162.3634  39.4896  1.00271742 84397
UFO 10 (USA 146)        
1 25967U 99063A   22324.05604917 -.00000168  00000+0  00000+0 0  9995
2 25967   8.9029  32.9000 0004635 190.5257 192.9792  1.00272502 84257
GALAXY 11 (G-11)        
1 26038U 99071A   22323.81460118 -.00000141  00000+0  00000+0 0  9991
2 26038   3.4096  85.6236 0002094 215.9655 317.4160  1.00271418 83996
USA 148                 
1 26052U 00001A   22323.53820536  .00000057  00000+0  00000+0 0  9990
2 26052   9.7828  41.4583 0001917 198.5704 192.6271  1.00267421 19874
ASIASTAR                
1 26107U 00016A   22323.85857351 -.00000312  00000+0  00000+0 0  9992
2 26107   6.0424  70.6836 0004982 176.0321 226.2582  1.00269643 82836
USA 149 (DSP 20)        
1 26356U 00024A   22323.39872590  .00000115  00000+0  00000+0 0  9998
2 26356  12.1939  20.4999 0001428 304.5460  71.7871  1.00285755 19823
TDRS 8                  
1 26388U 00034A   22323.83485069 -.00000217  00000+0  00000+0 0  9998
2 26388  10.6126  41.4717 0016726 333.4293  73.7393  1.00277644 82090
INTELSAT 9 (IS-9)       
1 26451U 00043A   22323.17756108 -.00000268  00000+0  00000+0 0  9997
2 26451   7.5418  60.1362 0003844 182.9904 189.0172  1.00271539 31050
NSS-11 (AAP-1)          
1 26554U 00059A   22323.53254708  .00000045  00000+0  00000+0 0  9999
2 26554   0.0206  15.2604 0002650 249.8913 161.1319  1.00271422 28190
USA 153                 
1 26575U 00065A   22323.62944413 -.00000305  00000+0  00000+0 0  9998
2 26575   9.3620  44.7877 0002097 215.4189 159.4460  1.00276061 19846
AMC-6 (GE-6)            
1 26580U 00067A   22323.73371209  .00000125  00000+0  00000+0 0  9994
2 26580   0.0158 315.9910 0002916 292.9181 294.9897  1.00272514 80823
INTELSAT 1R (IS-1R)     
1 26608U 00072A   22323.62549299 -.00000117  00000+0  00000+0 0  9997
2 26608   4.7947  79.2779 0000763 251.5665 110.0728  1.00271593 28234
ANIK F1                 
1 26624U 00076A   22323.59604001 -.00000041  00000+0  00000+0 0  9994
2 26624   1.8244  90.6760 0004701 102.0142 331.3027  1.00271220 80632
ASTRA 2D                
1 26638U 00081A   22323.98124209  .00000149  00000+0  00000+0 0  9993
2 26638   7.6211  59.2337 0001879 201.9370 174.7360  1.00270559 80308
AMC-8 (GE-8)            
1 26639U 00081B   22324.02142513  .00000110  00000+0  00000+0 0  9996
2 26639   2.8365  86.8702 0000980  63.8748 141.0070  1.00271318 80189
USA 157 (MILSTAR-2 2)   
1 26715U 01009A   22323.73641420  .00000031  00000+0  00000+0 0  9992
2 26715  10.1557  26.5916 0003901 220.1599 312.8003  1.00272257 19869
EUTELSAT 133 WEST A     
1 26719U 01011A   22323.59839934  .00000098  00000+0  00000+0 0  9995
2 26719   4.0928  81.2379 0001695 163.8255 256.1377  1.00271718 79454
INTELSAT 10 (IS-10)     
1 26766U 01019A   22323.60307484  .00000055  00000+0  00000+0 0  9990
2 26766   5.9438  72.0113 0003922 173.4059 208.1124  1.00272508 32533
INTELSAT 901 (IS-901)   
1 26824U 01024A   22323.75593916 -.00000181  00000+0  00000+0 0  9995
2 26824   0.0519  91.8012 0000385 134.4800  77.1857  1.00270850  9890
ASTRA 2C                
1 26853U 01025A   22323.83830032 -.00000237  00000+0  00000+0 0  9992
2 26853   4.9465  77.8003 0003038 171.5483  38.8557  1.00271477 31955
USA 159 (DSP 21)        
1 26880U 01033A   22324.06855061 -.00000279  00000+0  00000+0 0  9992
2 26880  11.5648  24.8270 0000867  52.7300 316.9080  1.00279870 18530
INTELSAT 902 (IS-902)   
1 26900U 01039A   22324.11299314 -.00000260  00000+0  00000+0 0  9990
2 26900   2.7957  87.2461 0003378 167.1960 155.2710  1.00271104 77683
USA 164 (MILSTAR-2 3)   
1 27168U 02001A   22323.90859263  .00000118  00000+0  00000+0 0  9999
2 27168   9.6724  28.3764 0002930 200.5719 176.0147  1.00273070 18568
INTELSAT 904 (IS-904)   
1 27380U 02007A   22323.75550333 -.00000192  00000+0  00000+0 0  9993
2 27380   3.6231  84.2494 0002811 157.0212  59.9878  1.00270089 75991
TDRS 9                  
1 27389U 02011A   22323.17512044 -.00000267  00000+0  00000+0 0  9993
2 27389   9.3488  59.3972 0024809 292.0793  67.3551  1.00265669 77346
ASTRA 3A                
1 27400U 02015B   22321.53334907 -.00000107  00000+0  00000+0 0  9992
2 27400   7.7133  58.1406 0001978 264.0614 197.3431  0.99774689 75603
NSS-7                   
1 27414U 02019A   22322.61009385 -.00000139  00000+0  00000+0 0  9995
2 27414   6.2587  70.0214 0002678 178.6070   8.6377  1.00271490 75461
DIRECTV 5 (TEMPO 1)     
1 27426U 02023A   22324.09813028 -.00000034  00000+0  00000+0 0  9998
2 27426   1.5197  91.2784 0003146 143.3702 109.6917  1.00273013 75216
INTELSAT 905 (IS-905)   
1 27438U 02027A   22324.10049406 -.00000162  00000+0  00000+0 0  9990
2 27438   3.4462  84.9656 0002573 152.6589 193.1924  1.00271745 74889
GALAXY 3C (G-3C)        
1 27445U 02030A   22322.45732398 -.00000134  00000+0  00000+0 0  9996
2 27445   0.3682  91.0258 0001259 217.5874 178.6903  1.00271257 33396
EUTELSAT 5 WEST A       
1 27460U 02035A   22324.11855049 -.00000020  00000+0  00000+0 0  9996
2 27460   2.6969  87.5787 0005666 161.3377 207.9053  1.00271822 74668
INTELSAT 906 (IS-906)   
1 27513U 02041A   22324.14632685  .00000037  00000+0  00000+0 0  9991
2 27513   2.4651  88.6613 0003945 162.4523 284.8551  1.00271706 73887
TDRS 10                 
1 27566U 02055A   22324.01419045  .00000108  00000+0  00000+0 0  9992
2 27566   8.4875  49.0760 0004002 320.0630 244.0035  1.00265697 73134
NSS-6                   
1 27603U 02057A   22323.55100705  .00000129  00000+0  00000+0 0  9997
2 27603   1.9991  89.7953 0003707 156.1517 201.4752  1.00270444 72948
NIMIQ 2                 
1 27632U 02062A   22323.54954065 -.00000045  00000+0  00000+0 0  9998
2 27632   6.3681  69.2876 0008413 167.8123 270.0746  1.00272913 31092
USA 167                 
1 27691U 03008A   22323.48750878  .00000071  00000+0  00000+0 0  9991
2 27691   8.3461  53.6019 0000597 195.7460 214.8855  1.00277633 19862
USA 169 (MILSTAR-2 4)   
1 27711U 03012A   22323.57061494 -.00000176  00000+0  00000+0 0  9995
2 27711  10.3561  39.2417 0003241 200.7850 176.1492  1.00271691 18550
GALAXY 12 (G-12)        
1 27715U 03013B   22323.60270372  .00000080  00000+0  00000+0 0  9994
2 27715   3.6555  83.9056 0001639 156.0889 266.5977  1.00270883 39008
ASIASAT 4               
1 27718U 03014A   22323.79080514 -.00000200  00000+0  00000+0 0  9990
2 27718   1.3575  92.0284 0002939 150.2846 248.7487  1.00270753 32215
HELLAS-SAT 2            
1 27811U 03020A   22324.09493948 -.00000059  00000+0  00000+0 0  9996
2 27811   4.0710  82.8886 0007450 160.3780 200.0475  1.00271302 71253
THURAYA-2               
1 27825U 03026A   22323.84188378  .00000146  00000+0  00000+0 0  9993
2 27825   6.9269  34.5260 0002525 185.2711 186.1293  1.00272634 71268
OPTUS C1                
1 27831U 03028B   22323.79237411 -.00000128  00000+0  00000+0 0  9990
2 27831   3.5863  84.7056 0005873 152.1760 262.9259  1.00270697 39978
GALAXY 23 (G-23)        
1 27854U 03034A   22323.16344035  .00000032  00000+0  00000+0 0  9997
2 27854   0.0136 284.5930 0003204 316.7556 114.6954  1.00272261 70649
USA 170                 
1 27875U 03040A   22324.18337757 -.00000251  00000+0  00000+0 0  9997
2 27875   7.7086  58.8132 0003731 167.2940 216.9659  1.00270278 18542
GALAXY 13 (HORIZONS-1)  
1 27954U 03044A   22323.60636983  .00000068  00000+0  00000+0 0  9993
2 27954   0.0502 101.9834 0000189  37.7016  10.2222  1.00271179 70064
YAMAL 202               
1 28089U 03053A   22323.79394308 -.00000057  00000+0  00000+0 0  9994
2 28089   3.0230  86.2680 0004763 128.9627 292.9565  1.00271311 69595
UFO 11 (USA 174)        
1 28117U 03057A   22323.82690236 -.00000077  00000+0  00000+0 0  9995
2 28117   7.2020  37.7961 0001355 162.4068 231.0890  1.00273428 69360
USA 176 (DSP 22)        
1 28158U 04004A   22323.83494292 -.00000201  00000+0  00000+0 0  9997
2 28158  10.2929  34.3973 0001402 280.4614 131.9641  1.00272433 19849
ABS-4 (MOBISAT-1)       
1 28184U 04007A   22324.06047503  .00000063  00000+0  00000+0 0  9999
2 28184   2.7139  87.4065 0005538 154.1662 260.2555  1.00270224 68493
EUTELSAT 7A             
1 28187U 04008A   22323.73362493  .00000126  00000+0  00000+0 0  9994
2 28187   2.4970  86.7271 0004164 151.4214 305.5196  1.00270582 68484
AMC-11 (GE-11)          
1 28252U 04017A   22323.73528108  .00000089  00000+0  00000+0 0  9992
2 28252   0.0261  26.4153 0002715 214.8626 311.1844  1.00272135 67797
INTELSAT 10-02          
1 28358U 04022A   22320.74873181  .00000003  00000+0  00000+0 0  9993
2 28358   0.0348  95.8226 0001170 173.4038  55.1443  1.00271207 67421
